[{"OBJECT_NAME":"OBJECT L","OBJECT_ID":"2023-085L","EPOCH":"2026-03-09T23:02:21.999840","MEAN_MOTION":15.29079976,"ECCENTRICITY":0.0005428,"INCLINATION":97.486,"RA_OF_ASC_NODE":178.8598,"ARG_OF_PERICENTER":50.8528,"MEAN_ANOMALY":309.3193,"EPHEMERIS_TYPE":0,"CLASSIFICATION_TYPE":"U","NORAD_CAT_ID":57014,"ELEMENT_SET_NO":999,"REV_AT_EPOCH":15144,"BSTAR":0.00063462603,"MEAN_MOTION_DOT":0.00017871,"MEAN_MOTION_DDOT":0},{"OBJECT_NAME":"STARLINK-35467","OBJECT_ID":"2025-253AA","EPOCH":"2026-03-09T10:34:48.552672","MEAN_MOTION":15.27587843,"ECCENTRICITY":0.00033084,"INCLINATION":43.002,"RA_OF_ASC_NODE":214.1513,"ARG_OF_PERICENTER":304.535,"MEAN_ANOMALY":55.5189,"EPHEMERIS_TYPE":0,"CLASSIFICATION_TYPE":"U","NORAD_CAT_ID":66343,"ELEMENT_SET_NO":999,"REV_AT_EPOCH":2020,"BSTAR":0.0011817307,"MEAN_MOTION_DOT":0.0003241,"MEAN_MOTION_DDOT":0}]
